[{"OBJECT_NAME":"CS1","OBJECT_ID":"2021-088B","EPOCH":"2026-03-09T18:02:30.253920","MEAN_MOTION":15.31848439,"ECCENTRICITY":0.00141292,"INCLINATION":97.3882,"RA_OF_ASC_NODE":132.1684,"ARG_OF_PERICENTER":78.0335,"MEAN_ANOMALY":282.249,"EPHEMERIS_TYPE":0,"CLASSIFICATION_TYPE":"U","NORAD_CAT_ID":49261,"ELEMENT_SET_NO":999,"REV_AT_EPOCH":24518,"BSTAR":0.00051175576,"MEAN_MOTION_DOT":0.00015722,"MEAN_MOTION_DDOT":0},{"OBJECT_NAME":"STARLINK-33760","OBJECT_ID":"2025-089P","EPOCH":"2026-03-09T22:26:02.328288","MEAN_MOTION":15.2763858,"ECCENTRICITY":0.00037063,"INCLINATION":43.0014,"RA_OF_ASC_NODE":43.9686,"ARG_OF_PERICENTER":285.8238,"MEAN_ANOMALY":74.2205,"EPHEMERIS_TYPE":0,"CLASSIFICATION_TYPE":"U","NORAD_CAT_ID":63764,"ELEMENT_SET_NO":999,"REV_AT_EPOCH":4899,"BSTAR":0.0014453123,"MEAN_MOTION_DOT":0.00039801,"MEAN_MOTION_DDOT":0}]
